*******************************************************************************
Ephemeris / WWW_USER Thu Dec  5 18:37:22 2024 Pasadena, USA      / Horizons    
*******************************************************************************
Target body name: 62412 (2000 SY178)              {source: JPL#44}
Center body name: Earth (399)                     {source: DE441}
Center-site name: Mauna Kea
*******************************************************************************
Start time      : A.D. 2018-Oct-27 04:00:00.0000 UT      
Stop  time      : A.D. 2018-Oct-27 16:11:00.0000 UT      
Step-size       : 1 minutes
*******************************************************************************
Target pole/equ : undefined
Target radii    : 5.187 km                                                     
Center geodetic : 204.5278, 19.8260847, 4.21024   {E-lon(deg),Lat(deg),Alt(km)}
Center cylindric: 204.5278, 6006.35451, 2151.0229 {E-lon(deg),Dxy(km),Dz(km)}
Center pole/equ : ITRF93                          {East-longitude positive}
Center radii    : 6378.137, 6378.137, 6356.752 km {Equator_a, b, pole_c}       
Target primary  : Sun
Vis. interferer : MOON (R_eq= 1737.400) km        {source: DE441}
Rel. light bend : Sun                             {source: DE441}
Rel. lght bnd GM: 1.3271E+11 km^3/s^2                                          
Small-body perts: Yes                             {source: SB441-N16}
Atmos refraction: NO (AIRLESS)
RA format       : HMS
Time format     : CAL 
Calendar mode   : Mixed Julian/Gregorian
RTS-only print  : NO       
EOP file        : eop.241205.p250303                                           
EOP coverage    : DATA-BASED 1962-JAN-20 TO 2024-DEC-05. PREDICTS-> 2025-MAR-02
Units conversion: 1 au= 149597870.700 km, c= 299792.458 km/s, 1 day= 86400.0 s 
Table cut-offs 1: Elevation (-90.0deg=NO ),Airmass (>38.000=NO), Daylight (YES)
Table cut-offs 2: Solar elongation (  0.0,180.0=NO ),Local Hour Angle( 0.0=NO )
Table cut-offs 3: RA/DEC angular rate (     0.0=NO )                           
*******************************************************************************
Initial IAU76/J2000 heliocentric ecliptic osculating elements (au, days, deg.):
  EPOCH=  2458127.5 ! 2018-Jan-09.00 (TDB)         Residual RMS= .2787         
   EC= .08141730682229319  QR= 2.89613208739257    TP= 2458420.6685284483      
   OM= 329.1525583823792   W=  163.0619562799197   IN= 4.73619265468861        
  Equivalent ICRF heliocentric cartesian coordinates (au, au/d):
   X= 8.831945932166756E-01  Y= 2.532168596675914E+00  Z= 1.360803999508301E+00
  VX=-9.867256226021401E-03 VY= 2.254941400948641E-03 VZ= 7.028227572403328E-04
Asteroid physical parameters (km, seconds, rotational period in hours):        
   GM= n.a.                RAD= 5.187              ROTPER= 3.33                
   H= 13.88                G= .150                 B-V= n.a.                   
                           ALBEDO= .065            STYP= n.a.                  
*******************************************************************************
 Date__(UT)__HR:MN     R.A._________(ICRF)_________DEC
******************************************************
$$SOE
 2018-Oct-27 10:09  m  10 09 35.987146 +12 43 17.82158
 2018-Oct-27 10:10  m  10 09 36.036721 +12 43 17.52612
 2018-Oct-27 10:11  m  10 09 36.086293 +12 43 17.23067
 2018-Oct-27 10:12  m  10 09 36.135862 +12 43 16.93522
 2018-Oct-27 10:13  m  10 09 36.185427 +12 43 16.63979
 2018-Oct-27 10:14  m  10 09 36.234989 +12 43 16.34435
 2018-Oct-27 10:15  m  10 09 36.284548 +12 43 16.04893
 2018-Oct-27 10:16  m  10 09 36.334104 +12 43 15.75351
 2018-Oct-27 10:17  m  10 09 36.383656 +12 43 15.45809
 2018-Oct-27 10:18  m  10 09 36.433206 +12 43 15.16268
 2018-Oct-27 10:19  m  10 09 36.482752 +12 43 14.86728
 2018-Oct-27 10:20  m  10 09 36.532294 +12 43 14.57188
 2018-Oct-27 10:21  m  10 09 36.581834 +12 43 14.27649
 2018-Oct-27 10:22  m  10 09 36.631370 +12 43 13.98110
 2018-Oct-27 10:23  m  10 09 36.680902 +12 43 13.68572
 2018-Oct-27 10:24  m  10 09 36.730432 +12 43 13.39035
 2018-Oct-27 10:25  m  10 09 36.779958 +12 43 13.09498
 2018-Oct-27 10:26  m  10 09 36.829481 +12 43 12.79961
 2018-Oct-27 10:27  m  10 09 36.879001 +12 43 12.50425
 2018-Oct-27 10:28  m  10 09 36.928517 +12 43 12.20890
 2018-Oct-27 10:29  m  10 09 36.978030 +12 43 11.91355
 2018-Oct-27 10:30  m  10 09 37.027539 +12 43 11.61821
 2018-Oct-27 10:31  m  10 09 37.077045 +12 43 11.32287
 2018-Oct-27 10:32  m  10 09 37.126548 +12 43 11.02754
 2018-Oct-27 10:33  m  10 09 37.176048 +12 43 10.73221
 2018-Oct-27 10:34  m  10 09 37.225544 +12 43 10.43689
 2018-Oct-27 10:35  m  10 09 37.275037 +12 43 10.14157
 2018-Oct-27 10:36  m  10 09 37.324526 +12 43 09.84626
 2018-Oct-27 10:37  m  10 09 37.374012 +12 43 09.55095
 2018-Oct-27 10:38  m  10 09 37.423494 +12 43 09.25565
 2018-Oct-27 10:39  m  10 09 37.472974 +12 43 08.96035
 2018-Oct-27 10:40  m  10 09 37.522449 +12 43 08.66506
 2018-Oct-27 10:41  m  10 09 37.571922 +12 43 08.36977
 2018-Oct-27 10:42  m  10 09 37.621391 +12 43 08.07449
 2018-Oct-27 10:43  m  10 09 37.670856 +12 43 07.77921
 2018-Oct-27 10:44  m  10 09 37.720319 +12 43 07.48394
 2018-Oct-27 10:45  m  10 09 37.769777 +12 43 07.18867
 2018-Oct-27 10:46  m  10 09 37.819233 +12 43 06.89340
 2018-Oct-27 10:47  m  10 09 37.868684 +12 43 06.59814
 2018-Oct-27 10:48  m  10 09 37.918133 +12 43 06.30289
 2018-Oct-27 10:49  m  10 09 37.967578 +12 43 06.00764
 2018-Oct-27 10:50  m  10 09 38.017019 +12 43 05.71239
 2018-Oct-27 10:51  m  10 09 38.066457 +12 43 05.41715
 2018-Oct-27 10:52  m  10 09 38.115892 +12 43 05.12191
 2018-Oct-27 10:53  m  10 09 38.165323 +12 43 04.82668
 2018-Oct-27 10:54  m  10 09 38.214751 +12 43 04.53145
 2018-Oct-27 10:55  m  10 09 38.264175 +12 43 04.23622
 2018-Oct-27 10:56  m  10 09 38.313595 +12 43 03.94100
 2018-Oct-27 10:57  m  10 09 38.363013 +12 43 03.64578
 2018-Oct-27 10:58  m  10 09 38.412426 +12 43 03.35057
 2018-Oct-27 10:59  m  10 09 38.461836 +12 43 03.05536
 2018-Oct-27 11:00  m  10 09 38.511243 +12 43 02.76016
 2018-Oct-27 11:01  m  10 09 38.560646 +12 43 02.46496
 2018-Oct-27 11:02  m  10 09 38.610046 +12 43 02.16976
 2018-Oct-27 11:03  m  10 09 38.659442 +12 43 01.87456
 2018-Oct-27 11:04  m  10 09 38.708835 +12 43 01.57937
 2018-Oct-27 11:05  m  10 09 38.758224 +12 43 01.28419
 2018-Oct-27 11:06  m  10 09 38.807609 +12 43 00.98901
 2018-Oct-27 11:07  m  10 09 38.856991 +12 43 00.69383
 2018-Oct-27 11:08  m  10 09 38.906370 +12 43 00.39865
 2018-Oct-27 11:09  m  10 09 38.955745 +12 43 00.10348
 2018-Oct-27 11:10  m  10 09 39.005116 +12 42 59.80831
 2018-Oct-27 11:11  m  10 09 39.054484 +12 42 59.51315
 2018-Oct-27 11:12  m  10 09 39.103849 +12 42 59.21799
 2018-Oct-27 11:13  m  10 09 39.153209 +12 42 58.92283
 2018-Oct-27 11:14  m  10 09 39.202567 +12 42 58.62767
 2018-Oct-27 11:15  m  10 09 39.251920 +12 42 58.33252
 2018-Oct-27 11:16  m  10 09 39.301270 +12 42 58.03738
 2018-Oct-27 11:17  m  10 09 39.350617 +12 42 57.74223
 2018-Oct-27 11:18  m  10 09 39.399960 +12 42 57.44709
 2018-Oct-27 11:19  m  10 09 39.449299 +12 42 57.15195
 2018-Oct-27 11:20  m  10 09 39.498635 +12 42 56.85681
 2018-Oct-27 11:21  m  10 09 39.547967 +12 42 56.56168
 2018-Oct-27 11:22  m  10 09 39.597296 +12 42 56.26655
 2018-Oct-27 11:23  m  10 09 39.646621 +12 42 55.97143
 2018-Oct-27 11:24  m  10 09 39.695942 +12 42 55.67630
 2018-Oct-27 11:25  m  10 09 39.745260 +12 42 55.38118
 2018-Oct-27 11:26  m  10 09 39.794574 +12 42 55.08606
 2018-Oct-27 11:27  m  10 09 39.843885 +12 42 54.79095
 2018-Oct-27 11:28  m  10 09 39.893192 +12 42 54.49583
 2018-Oct-27 11:29  m  10 09 39.942495 +12 42 54.20072
 2018-Oct-27 11:30  m  10 09 39.991795 +12 42 53.90562
 2018-Oct-27 11:31  m  10 09 40.041091 +12 42 53.61051
 2018-Oct-27 11:32  m  10 09 40.090384 +12 42 53.31541
 2018-Oct-27 11:33  m  10 09 40.139673 +12 42 53.02031
 2018-Oct-27 11:34  m  10 09 40.188958 +12 42 52.72521
 2018-Oct-27 11:35  m  10 09 40.238240 +12 42 52.43011
 2018-Oct-27 11:36  m  10 09 40.287518 +12 42 52.13502
 2018-Oct-27 11:37  m  10 09 40.336792 +12 42 51.83993
 2018-Oct-27 11:38  m  10 09 40.386063 +12 42 51.54484
 2018-Oct-27 11:39  m  10 09 40.435330 +12 42 51.24975
 2018-Oct-27 11:40  r  10 09 40.484594 +12 42 50.95467
 2018-Oct-27 11:41  m  10 09 40.533854 +12 42 50.65959
 2018-Oct-27 11:42  m  10 09 40.583110 +12 42 50.36451
 2018-Oct-27 11:43  m  10 09 40.632363 +12 42 50.06943
 2018-Oct-27 11:44  m  10 09 40.681612 +12 42 49.77435
 2018-Oct-27 11:45  m  10 09 40.730857 +12 42 49.47928
 2018-Oct-27 11:46  m  10 09 40.780099 +12 42 49.18420
 2018-Oct-27 11:47  m  10 09 40.829337 +12 42 48.88913
 2018-Oct-27 11:48  m  10 09 40.878571 +12 42 48.59406
 2018-Oct-27 11:49  m  10 09 40.927802 +12 42 48.29899
 2018-Oct-27 11:50  m  10 09 40.977029 +12 42 48.00393
 2018-Oct-27 11:51  m  10 09 41.026253 +12 42 47.70886
 2018-Oct-27 11:52  m  10 09 41.075473 +12 42 47.41380
 2018-Oct-27 11:53  m  10 09 41.124689 +12 42 47.11874
 2018-Oct-27 11:54  m  10 09 41.173901 +12 42 46.82368
 2018-Oct-27 11:55  m  10 09 41.223110 +12 42 46.52862
 2018-Oct-27 11:56  m  10 09 41.272315 +12 42 46.23356
 2018-Oct-27 11:57  m  10 09 41.321517 +12 42 45.93851
 2018-Oct-27 11:58  m  10 09 41.370715 +12 42 45.64345
 2018-Oct-27 11:59  m  10 09 41.419909 +12 42 45.34840
 2018-Oct-27 12:00  m  10 09 41.469100 +12 42 45.05335
 2018-Oct-27 12:01  m  10 09 41.518287 +12 42 44.75829
 2018-Oct-27 12:02  m  10 09 41.567470 +12 42 44.46324
 2018-Oct-27 12:03  m  10 09 41.616649 +12 42 44.16819
 2018-Oct-27 12:04  m  10 09 41.665825 +12 42 43.87315
 2018-Oct-27 12:05  m  10 09 41.714998 +12 42 43.57810
 2018-Oct-27 12:06  m  10 09 41.764166 +12 42 43.28305
 2018-Oct-27 12:07  m  10 09 41.813331 +12 42 42.98801
 2018-Oct-27 12:08  m  10 09 41.862493 +12 42 42.69296
 2018-Oct-27 12:09  m  10 09 41.911650 +12 42 42.39792
 2018-Oct-27 12:10  m  10 09 41.960804 +12 42 42.10287
 2018-Oct-27 12:11  m  10 09 42.009954 +12 42 41.80783
